STARLINK-4120           
1 53537U 22101L   22242.91667824  .00170706  00000+0  12032-2 0  9994
2 53537  53.2163  99.6830 0001406  59.8577 112.6180 15.73062359  1306
STARLINK-4118           
1 53538U 22101M   22242.91667824 -.00013369  00000+0 -90729-4 0  9999
2 53538  53.2164  99.6758 0001427  65.6516 110.3923 15.73263814  1307
STARLINK-4123           
1 53539U 22101N   22242.91667824 -.00056536  00000+0 -39925-3 0  9993
2 53539  53.2163  99.6809 0001098  48.0561 125.6031 15.73308750  1301
STARLINK-4486           
1 53540U 22101P   22242.91667824 -.00317325  00000+0 -23193-2 0  9990
2 53540  53.2166  99.6743 0001140  55.3825 121.8315 15.73435433  1307
STARLINK-4485           
1 53541U 22101Q   22242.91667824 -.00169643  00000+0 -12190-2 0  9994
2 53541  53.2165  99.6792 0001688  68.4352 106.4010 15.73385053  1301
STARLINK-4489           
1 53542U 22101R   22242.91667824  .00247108  00000+0  17172-2 0  9991
2 53542  53.2167  99.6707 0001195  63.6227 114.8072 15.73153370  1307
STARLINK-4297           
1 53543U 22101S   22242.91667824 -.00144811  00000+0 -10409-2 0  9997
2 53543  53.2173  99.6721 0001682  40.2619 136.4210 15.73294903  1300
STARLINK-4303           
1 53544U 22101T   22242.91667824 -.00224594  00000+0 -16283-2 0  9991
2 53544  53.2173  99.6667 0001310  47.5721 132.0605 15.73350843  1308
STARLINK-4475           
1 53545U 22101U   22242.91667824  .00304929  00000+0  21057-2 0  9996
2 53545  53.2168  99.6716 0001351  78.0190  99.8193 15.73126841  1303
STARLINK-4477           
1 53546U 22101V   22242.91667824 -.01531489  64250-3 -53715-2 0  9990
2 53546  53.2173  98.9219 0015449  74.1004 113.8598 15.88421984  1302
STARLINK-4474           
1 53547U 22101W   22242.91667824  .00211081  00000+0  14727-2 0  9990
2 53547  53.2168  99.6695 0001297  69.3555 109.6656 15.73171412  1306
STARLINK-4513           
1 53548U 22101X   22242.91667824 -.00272244  00000+0 -19812-2 0  9991
2 53548  53.2172  99.6632 0001217  60.2926 121.6754 15.73405292  1306
STARLINK-4516           
1 53549U 22101Y   22242.91667824  .00070211  00000+0  49887-3 0  9996
2 53549  53.2166  99.6664 0001183  61.4114 118.7327 15.73276435  1307
STARLINK-4518           
1 53550U 22101Z   22242.91667824 -.00302626  00000+0 -22082-2 0  9995
2 53550  53.2171  99.6619 0001198  65.0760 117.4697 15.73431387  1303
STARLINK-4514           
1 53551U 22101AA  22242.91667824 -.00267782  00000+0 -19494-2 0  9992
2 53551  53.2172  99.6649 0001159  64.6838 116.1193 15.73384452  1303
STARLINK-4495           
1 53552U 22101AB  22242.91667824 -.00351249  00000+0 -25763-2 0  9991
2 53552  53.2172  99.6582 0001258  74.7327 109.6060 15.73450020  1300
STARLINK-4501           
1 53553U 22101AC  22242.91667824 -.00350532  00000+0 -25698-2 0  9993
2 53553  53.2171  99.6604 0001253  60.4886 122.6436 15.73459207  1300
STARLINK-4506           
1 53554U 22101AD  22242.91667824 -.00423219  00000+0 -31241-2 0  9998
2 53554  53.2172  99.6557 0001121  74.9265 110.5718 15.73505044  1304
STARLINK-4504           
1 53555U 22101AE  22242.91667824 -.00347312  00000+0 -25467-2 0  9991
2 53555  53.2171  99.6587 0001379  73.3579 110.3897 15.73444850  1306
STARLINK-4505           
1 53556U 22101AF  22242.91667824 -.00433605  00000+0 -32032-2 0  9999
2 53556  53.2172  99.6534 0001056  61.9177 124.7623 15.73516819  1300
STARLINK-4502           
1 53557U 22101AG  22242.91667824 -.00366731  00000+0 -26937-2 0  9992
2 53557  53.2172  99.6565 0001115  78.6080 106.3203 15.73461431  1308
STARLINK-4494           
1 53558U 22101AH  22242.91667824 -.00423884  00000+0 -31277-2 0  9999
2 53558  53.2173  99.6512 0001326  65.0840 122.7834 15.73515558  1302
STARLINK-4508           
1 53559U 22101AJ  22242.91667824 -.00498918  00000+0 -37074-2 0  9991
2 53559  53.2172  99.6541 0000964  52.8758 133.1846 15.73563130  1301
STARLINK-4564           
1 53560U 22101AK  22242.91667824 -.00457543  00000+0 -33852-2 0  9992
2 53560  53.2172  99.6487 0001491  68.7004 120.3377 15.73545840  1303
STARLINK-4563           
1 53561U 22101AL  22242.91667824 -.00441018  00000+0 -32596-2 0  9997
2 53561  53.2172  99.6517 0001241  55.1037 132.1656 15.73524884  1303
STARLINK-4565           
1 53562U 22101AM  22242.91667824 -.00486337  00000+0 -36064-2 0  9995
2 53562  53.2172  99.6463 0001283  68.9011 121.3065 15.73574566  1300
STARLINK-4561           
1 53563U 22101AN  22242.91667824 -.00442269  00000+0 -32683-2 0  9995
2 53563  53.2172  99.6495 0001457  63.2254 125.2279 15.73531059  1306
STARLINK-4577           
1 53564U 22101AP  22242.91667824 -.00629510  00000+0 -47254-2 0  9992
2 53564  53.2172  99.6439 0001193  70.1372 121.1938 15.73688752  1300
STARLINK-4575           
1 53565U 22101AQ  22242.91667824 -.00473022  00000+0 -35041-2 0  9999
2 53565  53.2172  99.6471 0001328  81.2832 108.3395 15.73560869  1303
STARLINK-4576           
1 53566U 22101AR  22242.91667824 -.00538993  00000+0 -40128-2 0  9991
2 53566  53.2172  99.6417 0001204  55.1844 137.3632 15.73628799  1303
STARLINK-4585           
1 53567U 22101AS  22242.91667824 -.00624437  00000+0 -46864-2 0  9994
2 53567  53.2173  99.6450 0000892  54.6095 136.1328 15.73681268  1305
STARLINK-4583           
1 53568U 22101AT  22242.91667824 -.00576558  00000+0 -43035-2 0  9992
2 53568  53.2172  99.6381 0001524  57.6596 136.6395 15.73671128  1303
STARLINK-4582           
1 53569U 22101AU  22242.91667824 -.00551327  00000+0 -41101-2 0  9992
2 53569  53.2172  99.6424 0001075  58.7544 133.1999 15.73632902  1307
STARLINK-4550           
1 53570U 22101AV  22242.91667824 -.00562890  00000+0 -41978-2 0  9993
2 53570  53.2172  99.6394 0001371  60.4527 133.2651 15.73654717  1309
STARLINK-4584           
1 53571U 22101AW  22242.91667824 -.00569226  00000+0 -42484-2 0  9997
2 53571  53.2172  99.6400 0001251  56.8884 136.2380 15.73654770  1301
STARLINK-4555           
1 53572U 22101AX  22242.91667824 -.00687927  00000+0 -51810-2 0  9990
2 53572  53.2173  99.6348 0001376  63.5202 132.4957 15.73772334  1306
STARLINK-4547           
1 53573U 22101AY  22242.91667824 -.00590919  00000+0 -44152-2 0  9996
2 53573  53.2172  99.6365 0001503  65.0062 129.8749 15.73687262  1302
STARLINK-4559           
1 53574U 22101AZ  22242.91667824 -.00639208  00000+0 -47915-2 0  9992
2 53574  53.2173  99.6326 0001173  57.3696 139.8387 15.73747875  1307
STARLINK-4551           
1 53575U 22101BA  22242.91667824 -.00707982  00000+0 -53431-2 0  9998
2 53575  53.2174  99.6358 0001295  63.2067 132.2153 15.73780585  1300
STARLINK-4581           
1 53576U 22101BB  22242.91667824 -.00663594  00000+0 -49832-2 0  9999
2 53576  53.2172  99.6312 0001197  53.1652 144.6179 15.73773730  1307
STARLINK-4553           
1 53577U 22101BC  22242.91667824 -.00749618  00000+0 -56746-2 0  9994
2 53577  53.2175  99.6327 0001218  62.0981 134.4783 15.73826098  1309
STARLINK-4556           
1 53578U 22101BD  22242.91667824 -.00671711  00000+0 -50461-2 0  9991
2 53578  53.2173  99.6302 0001382  47.9073 150.4592 15.73785873  1308
STARLINK-4580           
1 53579U 22101BE  22242.91667824 -.00683808  00000+0 -51415-2 0  9992
2 53579  53.2173  99.6284 0001264  57.2269 141.7229 15.73799803  1306
FALCON 9 DEB            
1 53580U 22101BF  22242.85700552  .00676019  11483-4  70719-3 0  9998
2 53580  53.2178  98.9020 0057330  83.9138 276.8425 16.06206277  1784
FALCON 9 DEB            
1 53581U 22101BG  22242.85334387  .00673710  23924-3  70445-3 0  9991
2 53581  53.2152  98.8717 0053077  85.4361 275.2734 16.06754951  1781
FALCON 9 DEB            
1 53582U 22101BH  22242.59679861  .01231134  11549-4  11473-2 0  9999
2 53582  53.2152 100.1074 0049316  78.0876 282.5683 16.08728620  1741
FALCON 9 DEB            
1 53583U 22101BJ  22242.72110840  .00683472  11523-4  66715-3 0  9999
2 53583  53.2164  99.4595 0051529  80.3099 280.3751 16.07860992  1767
CHUANGXIN 16 (CX-16)    
1 53586U 22102A   22242.85361423  .00000618  00000+0  46771-4 0  9991
2 53586  29.0016 318.1942 0004558 330.1453  29.8721 14.91642797  1163
BEIJING-3B              
1 53587U 22103A   22242.96444122  .00000731  00000+0  86869-4 0  9991
2 53587  97.9419 311.5858 0013662 240.7963 119.1879 14.87448628  1020
